CCSDS_OMM_VERS = 2.0
CREATION_DATE  = 
ORIGINATOR     = 

OBJECT_NAME    = STARLINK-35437
OBJECT_ID      = 2025-268G
CENTER_NAME    = EARTH
REF_FRAME      = TEME
TIME_SYSTEM    = UTC
MEAN_ELEMENT_THEORY = SGP/SGP4

EPOCH          = 2025-12-06T14:00:01.999872
MEAN_MOTION    = 15.62106782
ECCENTRICITY   = .00013255
INCLINATION    = 42.9997
RA_OF_ASC_NODE = 157.3072
ARG_OF_PERICENTER = 259.9504
MEAN_ANOMALY   = 309.0934

EPHEMERIS_TYPE = 0
CLASSIFICATION_TYPE = U
NORAD_CAT_ID   = 66563
ELEMENT_SET_NO = 999
REV_AT_EPOCH   = 368
BSTAR          = -.25296068E-1
MEAN_MOTION_DOT = -.2002363E-1
MEAN_MOTION_DDOT = 0

CCSDS_OMM_VERS = 2.0
CREATION_DATE  = 
ORIGINATOR     = 

OBJECT_NAME    = STARLINK-35358
OBJECT_ID      = 2025-268H
CENTER_NAME    = EARTH
REF_FRAME      = TEME
TIME_SYSTEM    = UTC
MEAN_ELEMENT_THEORY = SGP/SGP4

EPOCH          = 2025-12-06T14:00:01.999872
MEAN_MOTION    = 15.62104140
ECCENTRICITY   = .0001402
INCLINATION    = 42.9997
RA_OF_ASC_NODE = 157.3025
ARG_OF_PERICENTER = 259.2458
MEAN_ANOMALY   = 311.7146

EPHEMERIS_TYPE = 0
CLASSIFICATION_TYPE = U
NORAD_CAT_ID   = 66564
ELEMENT_SET_NO = 999
REV_AT_EPOCH   = 363
BSTAR          = -.25228945E-1
MEAN_MOTION_DOT = -.199758E-1
MEAN_MOTION_DDOT = 0

CCSDS_OMM_VERS = 2.0
CREATION_DATE  = 
ORIGINATOR     = 

OBJECT_NAME    = STARLINK-35893
OBJECT_ID      = 2025-268J
CENTER_NAME    = EARTH
REF_FRAME      = TEME
TIME_SYSTEM    = UTC
MEAN_ELEMENT_THEORY = SGP/SGP4

EPOCH          = 2025-12-06T14:00:01.999872
MEAN_MOTION    = 15.62132226
ECCENTRICITY   = .00010483
INCLINATION    = 43.0000
RA_OF_ASC_NODE = 157.2974
ARG_OF_PERICENTER = 273.6039
MEAN_ANOMALY   = 299.3163

EPHEMERIS_TYPE = 0
CLASSIFICATION_TYPE = U
NORAD_CAT_ID   = 66565
ELEMENT_SET_NO = 999
REV_AT_EPOCH   = 368
BSTAR          = -.26548548E-1
MEAN_MOTION_DOT = -.2090255E-1
MEAN_MOTION_DDOT = 0

CCSDS_OMM_VERS = 2.0
CREATION_DATE  = 
ORIGINATOR     = 

OBJECT_NAME    = STARLINK-35871
OBJECT_ID      = 2025-268K
CENTER_NAME    = EARTH
REF_FRAME      = TEME
TIME_SYSTEM    = UTC
MEAN_ELEMENT_THEORY = SGP/SGP4

EPOCH          = 2025-12-06T14:00:01.999872
MEAN_MOTION    = 15.62104823
ECCENTRICITY   = .00014513
INCLINATION    = 43.0001
RA_OF_ASC_NODE = 157.2926
ARG_OF_PERICENTER = 259.7293
MEAN_ANOMALY   = 315.0649

EPHEMERIS_TYPE = 0
CLASSIFICATION_TYPE = U
NORAD_CAT_ID   = 66566
ELEMENT_SET_NO = 999
REV_AT_EPOCH   = 368
BSTAR          = -.25245452E-1
MEAN_MOTION_DOT = -.1998809E-1
MEAN_MOTION_DDOT = 0

CCSDS_OMM_VERS = 2.0
CREATION_DATE  = 
ORIGINATOR     = 

OBJECT_NAME    = STARLINK-35825
OBJECT_ID      = 2025-268L
CENTER_NAME    = EARTH
REF_FRAME      = TEME
TIME_SYSTEM    = UTC
MEAN_ELEMENT_THEORY = SGP/SGP4

EPOCH          = 2025-12-06T14:00:01.999872
MEAN_MOTION    = 15.62106177
ECCENTRICITY   = .00013892
INCLINATION    = 43.0000
RA_OF_ASC_NODE = 157.2880
ARG_OF_PERICENTER = 260.8347
MEAN_ANOMALY   = 315.8765

EPHEMERIS_TYPE = 0
CLASSIFICATION_TYPE = U
NORAD_CAT_ID   = 66567
ELEMENT_SET_NO = 999
REV_AT_EPOCH   = 368
BSTAR          = -.25269017E-1
MEAN_MOTION_DOT = -.2000492E-1
MEAN_MOTION_DDOT = 0

CCSDS_OMM_VERS = 2.0
CREATION_DATE  = 
ORIGINATOR     = 

OBJECT_NAME    = STARLINK-35803
OBJECT_ID      = 2025-268M
CENTER_NAME    = EARTH
REF_FRAME      = TEME
TIME_SYSTEM    = UTC
MEAN_ELEMENT_THEORY = SGP/SGP4

EPOCH          = 2025-12-06T14:00:01.999872
MEAN_MOTION    = 15.62104987
ECCENTRICITY   = .00014092
INCLINATION    = 42.9999
RA_OF_ASC_NODE = 157.2829
ARG_OF_PERICENTER = 256.5957
MEAN_ANOMALY   = 322.0311

EPHEMERIS_TYPE = 0
CLASSIFICATION_TYPE = U
NORAD_CAT_ID   = 66568
ELEMENT_SET_NO = 999
REV_AT_EPOCH   = 368
BSTAR          = -.25220579E-1
MEAN_MOTION_DOT = -.1997062E-1
MEAN_MOTION_DDOT = 0

CCSDS_OMM_VERS = 2.0
CREATION_DATE  = 
ORIGINATOR     = 

OBJECT_NAME    = STARLINK-35835
OBJECT_ID      = 2025-268N
CENTER_NAME    = EARTH
REF_FRAME      = TEME
TIME_SYSTEM    = UTC
MEAN_ELEMENT_THEORY = SGP/SGP4

EPOCH          = 2025-12-06T14:00:01.999872
MEAN_MOTION    = 15.62104238
ECCENTRICITY   = .00013888
INCLINATION    = 42.9998
RA_OF_ASC_NODE = 157.2783
ARG_OF_PERICENTER = 257.6896
MEAN_ANOMALY   = 322.8559

EPHEMERIS_TYPE = 0
CLASSIFICATION_TYPE = U
NORAD_CAT_ID   = 66569
ELEMENT_SET_NO = 999
REV_AT_EPOCH   = 368
BSTAR          = -.25224621E-1
MEAN_MOTION_DOT = -.1997276E-1
MEAN_MOTION_DDOT = 0

CCSDS_OMM_VERS = 2.0
CREATION_DATE  = 
ORIGINATOR     = 

OBJECT_NAME    = STARLINK-35834
OBJECT_ID      = 2025-268P
CENTER_NAME    = EARTH
REF_FRAME      = TEME
TIME_SYSTEM    = UTC
MEAN_ELEMENT_THEORY = SGP/SGP4

EPOCH          = 2025-12-06T14:00:01.999872
MEAN_MOTION    = 15.62103939
ECCENTRICITY   = .00013968
INCLINATION    = 43.0001
RA_OF_ASC_NODE = 157.2727
ARG_OF_PERICENTER = 260.0515
MEAN_ANOMALY   = 322.4131

EPHEMERIS_TYPE = 0
CLASSIFICATION_TYPE = U
NORAD_CAT_ID   = 66570
ELEMENT_SET_NO = 999
REV_AT_EPOCH   = 368
BSTAR          = -.25234669E-1
MEAN_MOTION_DOT = -.1997959E-1
MEAN_MOTION_DDOT = 0

CCSDS_OMM_VERS = 2.0
CREATION_DATE  = 
ORIGINATOR     = 

OBJECT_NAME    = STARLINK-35836
OBJECT_ID      = 2025-268Q
CENTER_NAME    = EARTH
REF_FRAME      = TEME
TIME_SYSTEM    = UTC
MEAN_ELEMENT_THEORY = SGP/SGP4

EPOCH          = 2025-12-06T14:00:01.999872
MEAN_MOTION    = 15.62106091
ECCENTRICITY   = .00013852
INCLINATION    = 42.9999
RA_OF_ASC_NODE = 157.2681
ARG_OF_PERICENTER = 258.7702
MEAN_ANOMALY   = 325.6098

EPHEMERIS_TYPE = 0
CLASSIFICATION_TYPE = U
NORAD_CAT_ID   = 66571
ELEMENT_SET_NO = 999
REV_AT_EPOCH   = 368
BSTAR          = -.2526045E-1
MEAN_MOTION_DOT = -.1999888E-1
MEAN_MOTION_DDOT = 0

CCSDS_OMM_VERS = 2.0
CREATION_DATE  = 
ORIGINATOR     = 

OBJECT_NAME    = STARLINK-35870
OBJECT_ID      = 2025-268R
CENTER_NAME    = EARTH
REF_FRAME      = TEME
TIME_SYSTEM    = UTC
MEAN_ELEMENT_THEORY = SGP/SGP4

EPOCH          = 2025-12-06T14:00:01.999872
MEAN_MOTION    = 15.62101360
ECCENTRICITY   = .00013363
INCLINATION    = 42.9996
RA_OF_ASC_NODE = 157.2643
ARG_OF_PERICENTER = 258.3682
MEAN_ANOMALY   = 327.9316

EPHEMERIS_TYPE = 0
CLASSIFICATION_TYPE = U
NORAD_CAT_ID   = 66572
ELEMENT_SET_NO = 999
REV_AT_EPOCH   = 368
BSTAR          = -.25177907E-1
MEAN_MOTION_DOT = -.1993795E-1
MEAN_MOTION_DDOT = 0

CCSDS_OMM_VERS = 2.0
CREATION_DATE  = 
ORIGINATOR     = 

OBJECT_NAME    = STARLINK-35650
OBJECT_ID      = 2025-268S
CENTER_NAME    = EARTH
REF_FRAME      = TEME
TIME_SYSTEM    = UTC
MEAN_ELEMENT_THEORY = SGP/SGP4

EPOCH          = 2025-12-06T14:00:01.999872
MEAN_MOTION    = 15.62103954
ECCENTRICITY   = .00014799
INCLINATION    = 42.9996
RA_OF_ASC_NODE = 157.2583
ARG_OF_PERICENTER = 260.6113
MEAN_ANOMALY   = 327.6015

EPHEMERIS_TYPE = 0
CLASSIFICATION_TYPE = U
NORAD_CAT_ID   = 66573
ELEMENT_SET_NO = 999
REV_AT_EPOCH   = 368
BSTAR          = -.25198173E-1
MEAN_MOTION_DOT = -.1995489E-1
MEAN_MOTION_DDOT = 0

CCSDS_OMM_VERS = 2.0
CREATION_DATE  = 
ORIGINATOR     = 

OBJECT_NAME    = STARLINK-35812
OBJECT_ID      = 2025-268T
CENTER_NAME    = EARTH
REF_FRAME      = TEME
TIME_SYSTEM    = UTC
MEAN_ELEMENT_THEORY = SGP/SGP4

EPOCH          = 2025-12-06T14:00:01.999872
MEAN_MOTION    = 15.62106506
ECCENTRICITY   = .00014084
INCLINATION    = 42.9997
RA_OF_ASC_NODE = 157.2532
ARG_OF_PERICENTER = 259.4073
MEAN_ANOMALY   = 330.7243

EPHEMERIS_TYPE = 0
CLASSIFICATION_TYPE = U
NORAD_CAT_ID   = 66574
ELEMENT_SET_NO = 999
REV_AT_EPOCH   = 368
BSTAR          = -.25283087E-1
MEAN_MOTION_DOT = -.2001505E-1
MEAN_MOTION_DDOT = 0

