STARLINK-35437          
1 66563U 25268G   25340.58335648 -.02002363  00000+0 -25296-1 0  9997
2 66563  42.9997 157.3072 0001325 259.9504 309.0934 15.62106782  3681
STARLINK-35358          
1 66564U 25268H   25340.58335648 -.01997580  00000+0 -25229-1 0  9997
2 66564  42.9997 157.3025 0001402 259.2458 311.7146 15.62104140  3633
STARLINK-35893          
1 66565U 25268J   25340.58335648 -.02090255  00000+0 -26549-1 0  9998
2 66565  43.0000 157.2974 0001048 273.6039 299.3163 15.62132226  3685
STARLINK-35871          
1 66566U 25268K   25340.58335648 -.01998809  00000+0 -25245-1 0  9992
2 66566  43.0001 157.2926 0001451 259.7293 315.0649 15.62104823  3686
STARLINK-35825          
1 66567U 25268L   25340.58335648 -.02000492  00000+0 -25269-1 0  9992
2 66567  43.0000 157.2880 0001389 260.8347 315.8765 15.62106177  3689
STARLINK-35803          
1 66568U 25268M   25340.58335648 -.01997062  00000+0 -25221-1 0  9998
2 66568  42.9999 157.2829 0001409 256.5957 322.0311 15.62104987  3684
STARLINK-35835          
1 66569U 25268N   25340.58335648 -.01997276  00000+0 -25225-1 0  9990
2 66569  42.9998 157.2783 0001388 257.6896 322.8559 15.62104238  3684
STARLINK-35834          
1 66570U 25268P   25340.58335648 -.01997959  00000+0 -25235-1 0  9991
2 66570  43.0001 157.2727 0001396 260.0515 322.4131 15.62103939  3685
STARLINK-35836          
1 66571U 25268Q   25340.58335648 -.01999888  00000+0 -25260-1 0  9993
2 66571  42.9999 157.2681 0001385 258.7702 325.6098 15.62106091  3688
STARLINK-35870          
1 66572U 25268R   25340.58335648 -.01993795  00000+0 -25178-1 0  9993
2 66572  42.9996 157.2643 0001336 258.3682 327.9316 15.62101360  3685
STARLINK-35650          
1 66573U 25268S   25340.58335648 -.01995489  00000+0 -25198-1 0  9998
2 66573  42.9996 157.2583 0001479 260.6113 327.6015 15.62103954  3686
STARLINK-35812          
1 66574U 25268T   25340.58335648 -.02001505  00000+0 -25283-1 0  9992
2 66574  42.9997 157.2532 0001408 259.4073 330.7243 15.62106506  3689
